[{"OBJECT_NAME":"STARLINK-1648","OBJECT_ID":"2020-070B","EPOCH":"2023-01-02T16:40:54.297696","MEAN_MOTION":15.06400051,"ECCENTRICITY":0.0002212,"INCLINATION":53.0553,"RA_OF_ASC_NODE":353.0121,"ARG_OF_PERICENTER":46.8727,"MEAN_ANOMALY":313.2447,"EPHEMERIS_TYPE":0,"CLASSIFICATION_TYPE":"U","NORAD_CAT_ID":46533,"ELEMENT_SET_NO":999,"REV_AT_EPOCH":12436,"BSTAR":0.00046138,"MEAN_MOTION_DOT":6.597e-5,"MEAN_MOTION_DDOT":0},{"OBJECT_NAME":"STARLINK-1659","OBJECT_ID":"2020-070C","EPOCH":"2023-01-02T16:14:22.883136","MEAN_MOTION":15.06393191,"ECCENTRICITY":0.000245,"INCLINATION":53.0549,"RA_OF_ASC_NODE":353.1043,"ARG_OF_PERICENTER":34.6759,"MEAN_ANOMALY":325.439,"EPHEMERIS_TYPE":0,"CLASSIFICATION_TYPE":"U","NORAD_CAT_ID":46534,"ELEMENT_SET_NO":999,"REV_AT_EPOCH":12436,"BSTAR":0.0009441,"MEAN_MOTION_DOT":0.00013806,"MEAN_MOTION_DDOT":0},{"OBJECT_NAME":"STARLINK-1663","OBJECT_ID":"2020-070D","EPOCH":"2023-01-02T15:58:27.177312","MEAN_MOTION":15.0639684,"ECCENTRICITY":0.0002463,"INCLINATION":53.0542,"RA_OF_ASC_NODE":353.1548,"ARG_OF_PERICENTER":37.6853,"MEAN_ANOMALY":322.4308,"EPHEMERIS_TYPE":0,"CLASSIFICATION_TYPE":"U","NORAD_CAT_ID":46535,"ELEMENT_SET_NO":999,"REV_AT_EPOCH":12435,"BSTAR":0.00057522,"MEAN_MOTION_DOT":8.296e-5,"MEAN_MOTION_DDOT":0},{"OBJECT_NAME":"STARLINK-1672","OBJECT_ID":"2020-070F","EPOCH":"2023-01-02T19:46:40.482624","MEAN_MOTION":15.06396868,"ECCENTRICITY":0.0002081,"INCLINATION":53.0542,"RA_OF_ASC_NODE":352.4476,"ARG_OF_PERICENTER":52.1518,"MEAN_ANOMALY":307.9659,"EPHEMERIS_TYPE":0,"CLASSIFICATION_TYPE":"U","NORAD_CAT_ID":46537,"ELEMENT_SET_NO":999,"REV_AT_EPOCH":12438,"BSTAR":0.00020861,"MEAN_MOTION_DOT":2.827e-5,"MEAN_MOTION_DDOT":0},{"OBJECT_NAME":"STARLINK-1678","OBJECT_ID":"2020-070G","EPOCH":"2023-01-02T16:03:45.247680","MEAN_MOTION":15.06397364,"ECCENTRICITY":0.0002563,"INCLINATION":53.0557,"RA_OF_ASC_NODE":353.1352,"ARG_OF_PERICENTER":38.0973,"MEAN_ANOMALY":322.0197,"EPHEMERIS_TYPE":0,"CLASSIFICATION_TYPE":"U","NORAD_CAT_ID":46538,"ELEMENT_SET_NO":999,"REV_AT_EPOCH":12435,"BSTAR":0.00052935,"MEAN_MOTION_DOT":7.611e-5,"MEAN_MOTION_DDOT":0},{"OBJECT_NAME":"STARLINK-1687","OBJECT_ID":"2020-070K","EPOCH":"2023-01-02T07:36:52.387200","MEAN_MOTION":15.06385319,"ECCENTRICITY":0.0001771,"INCLINATION":53.0534,"RA_OF_ASC_NODE":334.7129,"ARG_OF_PERICENTER":65.8013,"MEAN_ANOMALY":294.3161,"EPHEMERIS_TYPE":0,"CLASSIFICATION_TYPE":"U","NORAD_CAT_ID":46541,"ELEMENT_SET_NO":999,"REV_AT_EPOCH":12458,"BSTAR":0.00065398,"MEAN_MOTION_DOT":9.469e-5,"MEAN_MOTION_DDOT":0},{"OBJECT_NAME":"STARLINK-1692","OBJECT_ID":"2020-070L","EPOCH":"2023-01-02T10:50:35.385216","MEAN_MOTION":15.06404229,"ECCENTRICITY":0.0002474,"INCLINATION":53.0538,"RA_OF_ASC_NODE":354.1201,"ARG_OF_PERICENTER":34.3668,"MEAN_ANOMALY":325.7481,"EPHEMERIS_TYPE":0,"CLASSIFICATION_TYPE":"U","NORAD_CAT_ID":46542,"ELEMENT_SET_NO":999,"REV_AT_EPOCH":12432,"BSTAR":0.0003091,"MEAN_MOTION_DOT":4.326e-5,"MEAN_MOTION_DDOT":0},{"OBJECT_NAME":"STARLINK-1693","OBJECT_ID":"2020-070M","EPOCH":"2023-01-02T23:13:40.630368","MEAN_MOTION":15.06401024,"ECCENTRICITY":0.0002252,"INCLINATION":53.0555,"RA_OF_ASC_NODE":351.7975,"ARG_OF_PERICENTER":56.151,"MEAN_ANOMALY":303.9693,"EPHEMERIS_TYPE":0,"CLASSIFICATION_TYPE":"U","NORAD_CAT_ID":46543,"ELEMENT_SET_NO":999,"REV_AT_EPOCH":12442,"BSTAR":2.6479e-5,"MEAN_MOTION_DOT":1.13e-6,"MEAN_MOTION_DDOT":0},{"OBJECT_NAME":"STARLINK-1694","OBJECT_ID":"2020-070N","EPOCH":"2023-01-02T15:10:01.287840","MEAN_MOTION":15.06388234,"ECCENTRICITY":0.0001976,"INCLINATION":53.0546,"RA_OF_ASC_NODE":338.3116,"ARG_OF_PERICENTER":54.4556,"MEAN_ANOMALY":305.6617,"EPHEMERIS_TYPE":0,"CLASSIFICATION_TYPE":"U","NORAD_CAT_ID":46544,"ELEMENT_SET_NO":999,"REV_AT_EPOCH":12456,"BSTAR":0.00019249,"MEAN_MOTION_DOT":2.586e-5,"MEAN_MOTION_DDOT":0},{"OBJECT_NAME":"STARLINK-1696","OBJECT_ID":"2020-070P","EPOCH":"2023-01-02T16:09:03.770784","MEAN_MOTION":15.06403277,"ECCENTRICITY":0.0001845,"INCLINATION":53.0553,"RA_OF_ASC_NODE":353.1148,"ARG_OF_PERICENTER":67.7655,"MEAN_ANOMALY":292.353,"EPHEMERIS_TYPE":0,"CLASSIFICATION_TYPE":"U","NORAD_CAT_ID":46545,"ELEMENT_SET_NO":999,"REV_AT_EPOCH":12435,"BSTAR":0.00090144,"MEAN_MOTION_DOT":0.00013172,"MEAN_MOTION_DDOT":0},{"OBJECT_NAME":"STARLINK-1697","OBJECT_ID":"2020-070Q","EPOCH":"2023-01-02T15:47:48.663168","MEAN_MOTION":15.06404814,"ECCENTRICITY":0.00017,"INCLINATION":53.0557,"RA_OF_ASC_NODE":353.1947,"ARG_OF_PERICENTER":56.8613,"MEAN_ANOMALY":303.2538,"EPHEMERIS_TYPE":0,"CLASSIFICATION_TYPE":"U","NORAD_CAT_ID":46546,"ELEMENT_SET_NO":999,"REV_AT_EPOCH":12435,"BSTAR":-1.0802e-7,"MEAN_MOTION_DOT":-2.83e-6,"MEAN_MOTION_DDOT":0},{"OBJECT_NAME":"STARLINK-1698","OBJECT_ID":"2020-070R","EPOCH":"2023-01-02T16:28:55.575840","MEAN_MOTION":15.06405219,"ECCENTRICITY":0.0002774,"INCLINATION":53.0545,"RA_OF_ASC_NODE":353.0566,"ARG_OF_PERICENTER":35.404,"MEAN_ANOMALY":324.7133,"EPHEMERIS_TYPE":0,"CLASSIFICATION_TYPE":"U","NORAD_CAT_ID":46547,"ELEMENT_SET_NO":999,"REV_AT_EPOCH":12436,"BSTAR":0.00015641,"MEAN_MOTION_DOT":2.049e-5,"MEAN_MOTION_DDOT":0},{"OBJECT_NAME":"STARLINK-1699","OBJECT_ID":"2020-070S","EPOCH":"2023-01-02T16:46:13.077408","MEAN_MOTION":15.06394952,"ECCENTRICITY":0.0002752,"INCLINATION":53.0557,"RA_OF_ASC_NODE":353.0107,"ARG_OF_PERICENTER":32.923,"MEAN_ANOMALY":327.193,"EPHEMERIS_TYPE":0,"CLASSIFICATION_TYPE":"U","NORAD_CAT_ID":46548,"ELEMENT_SET_NO":999,"REV_AT_EPOCH":12436,"BSTAR":4.4105e-5,"MEAN_MOTION_DOT":3.75e-6,"MEAN_MOTION_DDOT":0},{"OBJECT_NAME":"STARLINK-1700","OBJECT_ID":"2020-070T","EPOCH":"2023-01-02T15:53:08.104704","MEAN_MOTION":15.06405668,"ECCENTRICITY":0.0002053,"INCLINATION":53.0569,"RA_OF_ASC_NODE":353.1775,"ARG_OF_PERICENTER":53.7782,"MEAN_ANOMALY":306.3397,"EPHEMERIS_TYPE":0,"CLASSIFICATION_TYPE":"U","NORAD_CAT_ID":46549,"ELEMENT_SET_NO":999,"REV_AT_EPOCH":12435,"BSTAR":-7.7545e-5,"MEAN_MOTION_DOT":-1.437e-5,"MEAN_MOTION_DDOT":0},{"OBJECT_NAME":"STARLINK-1701","OBJECT_ID":"2020-070U","EPOCH":"2023-01-02T05:58:40.654560","MEAN_MOTION":15.06387022,"ECCENTRICITY":0.0002699,"INCLINATION":53.0546,"RA_OF_ASC_NODE":355.0203,"ARG_OF_PERICENTER":33.5345,"MEAN_ANOMALY":326.5814,"EPHEMERIS_TYPE":0,"CLASSIFICATION_TYPE":"U","NORAD_CAT_ID":46550,"ELEMENT_SET_NO":999,"REV_AT_EPOCH":12429,"BSTAR":0.00071422,"MEAN_MOTION_DOT":0.00010369,"MEAN_MOTION_DDOT":0},{"OBJECT_NAME":"STARLINK-1649","OBJECT_ID":"2020-070W","EPOCH":"2023-01-02T19:51:37.906848","MEAN_MOTION":15.62825154,"ECCENTRICITY":0.0002919,"INCLINATION":53.0473,"RA_OF_ASC_NODE":291.5231,"ARG_OF_PERICENTER":77.3266,"MEAN_ANOMALY":282.8073,"EPHEMERIS_TYPE":0,"CLASSIFICATION_TYPE":"U","NORAD_CAT_ID":46552,"ELEMENT_SET_NO":999,"REV_AT_EPOCH":12524,"BSTAR":0.0007943,"MEAN_MOTION_DOT":0.00073063,"MEAN_MOTION_DDOT":0},{"OBJECT_NAME":"STARLINK-1664","OBJECT_ID":"2020-070X","EPOCH":"2023-01-02T07:16:57.973728","MEAN_MOTION":15.06387316,"ECCENTRICITY":0.0002157,"INCLINATION":53.0537,"RA_OF_ASC_NODE":324.7954,"ARG_OF_PERICENTER":46.9838,"MEAN_ANOMALY":313.1331,"EPHEMERIS_TYPE":0,"CLASSIFICATION_TYPE":"U","NORAD_CAT_ID":46553,"ELEMENT_SET_NO":999,"REV_AT_EPOCH":12473,"BSTAR":-0.00015772,"MEAN_MOTION_DOT":-2.629e-5,"MEAN_MOTION_DDOT":0}]
