STARLINK-1648           
1 46533U 20070B   23002.69507289  .00006597  00000+0  46138-3 0  9994
2 46533  53.0553 353.0121 0002212  46.8727 313.2447 15.06400051124362
STARLINK-1659           
1 46534U 20070C   23002.67665374  .00013806  00000+0  94410-3 0  9990
2 46534  53.0549 353.1043 0002450  34.6759 325.4390 15.06393191124364
STARLINK-1663           
1 46535U 20070D   23002.66559233  .00008296  00000+0  57522-3 0  9996
2 46535  53.0542 353.1548 0002463  37.6853 322.4308 15.06396840124359
STARLINK-1672           
1 46537U 20070F   23002.82407966  .00002827  00000+0  20861-3 0  9991
2 46537  53.0542 352.4476 0002081  52.1518 307.9659 15.06396868124389
STARLINK-1678           
1 46538U 20070G   23002.66927370  .00007611  00000+0  52935-3 0  9993
2 46538  53.0557 353.1352 0002563  38.0973 322.0197 15.06397364124354
STARLINK-1687           
1 46541U 20070K   23002.31727300  .00009469  00000+0  65398-3 0  9990
2 46541  53.0534 334.7129 0001771  65.8013 294.3161 15.06385319124587
STARLINK-1692           
1 46542U 20070L   23002.45179844  .00004326  00000+0  30910-3 0  9999
2 46542  53.0538 354.1201 0002474  34.3668 325.7481 15.06404229124325
STARLINK-1693           
1 46543U 20070M   23002.96783137  .00000113  00000+0  26479-4 0  9998
2 46543  53.0555 351.7975 0002252  56.1510 303.9693 15.06401024124422
STARLINK-1694           
1 46544U 20070N   23002.63195935  .00002586  00000+0  19249-3 0  9998
2 46544  53.0546 338.3116 0001976  54.4556 305.6617 15.06388234124561
STARLINK-1696           
1 46545U 20070P   23002.67296031  .00013172  00000+0  90144-3 0  9998
2 46545  53.0553 353.1148 0001845  67.7655 292.3530 15.06403277124350
STARLINK-1697           
1 46546U 20070Q   23002.65820212 -.00000283  00000+0 -10802-6 0  9998
2 46546  53.0557 353.1947 0001700  56.8613 303.2538 15.06404814124353
STARLINK-1698           
1 46547U 20070R   23002.68675435  .00002049  00000+0  15641-3 0  9990
2 46547  53.0545 353.0566 0002774  35.4040 324.7133 15.06405219124366
STARLINK-1699           
1 46548U 20070S   23002.69876247  .00000375  00000+0  44105-4 0  9994
2 46548  53.0557 353.0107 0002752  32.9230 327.1930 15.06394952124363
STARLINK-1700           
1 46549U 20070T   23002.66189936 -.00001437  00000+0 -77545-4 0  9990
2 46549  53.0569 353.1775 0002053  53.7782 306.3397 15.06405668124358
STARLINK-1701           
1 46550U 20070U   23002.24908165  .00010369  00000+0  71422-3 0  9998
2 46550  53.0546 355.0203 0002699  33.5345 326.5814 15.06387022124293
STARLINK-1649           
1 46552U 20070W   23002.82752207  .00073063  00000+0  79430-3 0  9995
2 46552  53.0473 291.5231 0002919  77.3266 282.8073 15.62825154125244
STARLINK-1664           
1 46553U 20070X   23002.30344877 -.00002629  00000+0 -15772-3 0  9990
2 46553  53.0537 324.7954 0002157  46.9838 313.1331 15.06387316124737
